[{"OBJECT_NAME":"ONEWEB-0045","OBJECT_ID":"2020-008W","EPOCH":"2026-03-09T23:28:07.220640","MEAN_MOTION":13.11416478,"ECCENTRICITY":0.00017385,"INCLINATION":87.8871,"RA_OF_ASC_NODE":40.7766,"ARG_OF_PERICENTER":84.6834,"MEAN_ANOMALY":275.4492,"EPHEMERIS_TYPE":0,"CLASSIFICATION_TYPE":"U","NORAD_CAT_ID":45151,"ELEMENT_SET_NO":999,"REV_AT_EPOCH":29740,"BSTAR":0.0014300953,"MEAN_MOTION_DOT":5.2e-6,"MEAN_MOTION_DDOT":0},{"OBJECT_NAME":"THORAD AGENA D DEB","OBJECT_ID":"1970-025RU","EPOCH":"2026-02-23T15:04:36.884352","MEAN_MOTION":13.23273729,"ECCENTRICITY":0.0185195,"INCLINATION":99.3774,"RA_OF_ASC_NODE":188.6895,"ARG_OF_PERICENTER":222.7336,"MEAN_ANOMALY":135.9257,"EPHEMERIS_TYPE":0,"CLASSIFICATION_TYPE":"U","NORAD_CAT_ID":42514,"ELEMENT_SET_NO":999,"REV_AT_EPOCH":59158,"BSTAR":0.0010493,"MEAN_MOTION_DOT":4.46e-6,"MEAN_MOTION_DDOT":0}]
